GOES 19                 
1 60133U 24119A   26061.50188560 -.00000265  00000+0  00000+0 0  9990
2 60133   0.0013 214.6235 0000922 158.0579 253.0696  1.00272345  5897
FENGYUN 3H              
1 65815U 25219A   26061.77859404  .00000087  00000+0  61245-4 0  9999
2 65815  98.6677   4.6700 0001419  66.3805 293.7520 14.19930335 22280
