[{"OBJECT_NAME":"GOES 19","OBJECT_ID":"2024-119A","EPOCH":"2026-03-02T12:02:42.915840","MEAN_MOTION":1.00272345,"ECCENTRICITY":9.22e-5,"INCLINATION":0.0013,"RA_OF_ASC_NODE":214.6235,"ARG_OF_PERICENTER":158.0579,"MEAN_ANOMALY":253.0696,"EPHEMERIS_TYPE":0,"CLASSIFICATION_TYPE":"U","NORAD_CAT_ID":60133,"ELEMENT_SET_NO":999,"REV_AT_EPOCH":589,"BSTAR":0,"MEAN_MOTION_DOT":-2.65e-6,"MEAN_MOTION_DDOT":0},{"OBJECT_NAME":"FENGYUN 3H","OBJECT_ID":"2025-219A","EPOCH":"2026-03-02T18:41:10.525056","MEAN_MOTION":14.19930335,"ECCENTRICITY":0.0001419,"INCLINATION":98.6677,"RA_OF_ASC_NODE":4.67,"ARG_OF_PERICENTER":66.3805,"MEAN_ANOMALY":293.752,"EPHEMERIS_TYPE":0,"CLASSIFICATION_TYPE":"U","NORAD_CAT_ID":65815,"ELEMENT_SET_NO":999,"REV_AT_EPOCH":2228,"BSTAR":6.1245e-5,"MEAN_MOTION_DOT":8.7e-7,"MEAN_MOTION_DDOT":0}]
